start=new Date('2022-12-13T00:00:00.000Z').valueOf();
sats=[{"MEAN_ELEMENT_THEORY":"SGP4","DECAY_DATE":null,"TLE_LINE1":"1 44934U 20001W   22346.12220218  .00008645  00000-0  59843-3 0  9997","EPOCH":"2022-12-12T02:55:58.268352","OBJECT_TYPE":"PAYLOAD","APOAPSIS":"548.105","GP_ID":"220165009","CLASSIFICATION_TYPE":"U","OBJECT_ID":"2020-001W","EPHEMERIS_TYPE":"0","RCS_SIZE":"LARGE","SITE":"AFETR","FILE":"3694071","NORAD_CAT_ID":"44934","OBJECT_NAME":"STARLINK-1071","LAUNCH_DATE":"2020-01-07","MEAN_ANOMALY":"281.4791","PERIOD":"95.592","MEAN_MOTION_DOT":"0.00008645","COUNTRY_CODE":"US","SEMIMAJOR_AXIS":"6925.332","REV_AT_EPOCH":"16173","ECCENTRICITY":"0.00013120","RA_OF_ASC_NODE":"239.8733","TIME_SYSTEM":"UTC","MEAN_MOTION_DDOT":"0.0000000000000","BSTAR":"0.00059843000000","REF_FRAME":"TEME","TLE_LINE2":"2 44934  53.0531 239.8733 0001312  78.6345 281.4791 15.06405564161734","CENTER_NAME":"EARTH","ELEMENT_SET_NO":"999","MEAN_MOTION":"15.06405564","PERIAPSIS":"546.288","INCLINATION":"53.0531","ARG_OF_PERICENTER":"78.6345"},{"BSTAR":"0.00009798800000","REF_FRAME":"TEME","TIME_SYSTEM":"UTC","MEAN_MOTION_DDOT":"0.0000000000000","ARG_OF_PERICENTER":"81.4314","PERIAPSIS":"546.159","INCLINATION":"53.0526","MEAN_MOTION":"15.06404874","ELEMENT_SET_NO":"999","TLE_LINE2":"2 44937  53.0526 239.6746 0001501  81.4314 278.6845 15.06404874161743","CENTER_NAME":"EARTH","COUNTRY_CODE":"US","MEAN_MOTION_DOT":"0.00001178","MEAN_ANOMALY":"278.6845","PERIOD":"95.592","RA_OF_ASC_NODE":"239.6746","REV_AT_EPOCH":"16174","ECCENTRICITY":"0.00015010","SEMIMAJOR_AXIS":"6925.334","RCS_SIZE":"LARGE","SITE":"AFETR","EPHEMERIS_TYPE":"0","OBJECT_ID":"2020-001Z","OBJECT_NAME":"STARLINK-1079","LAUNCH_DATE":"2020-01-07","NORAD_CAT_ID":"44937","FILE":"3694071","TLE_LINE1":"1 44937U 20001Z   22346.16643222  .00001178  00000-0  97988-4 0  9995","DECAY_DATE":null,"MEAN_ELEMENT_THEORY":"SGP4","GP_ID":"220164765","CLASSIFICATION_TYPE":"U","APOAPSIS":"548.238","OBJECT_TYPE":"PAYLOAD","EPOCH":"2022-12-12T03:59:39.743808"},{"OBJECT_NAME":"STARLINK-1082","LAUNCH_DATE":"2020-01-07","NORAD_CAT_ID":"44938","FILE":"3694540","OBJECT_ID":"2020-001AA","RCS_SIZE":"LARGE","SITE":"AFETR","EPHEMERIS_TYPE":"0","APOAPSIS":"548.161","EPOCH":"2022-12-12T17:31:45.352992","OBJECT_TYPE":"PAYLOAD","GP_ID":"220180055","CLASSIFICATION_TYPE":"U","DECAY_DATE":null,"MEAN_ELEMENT_THEORY":"SGP4","TLE_LINE1":"1 44938U 20001AA  22346.73038603  .00004069  00000-0  29186-3 0  9996","ELEMENT_SET_NO":"999","TLE_LINE2":"2 44938  53.0528 237.1333 0001394  70.6562 289.4578 15.06405712161820","CENTER_NAME":"EARTH","PERIAPSIS":"546.231","ARG_OF_PERICENTER":"70.6562","INCLINATION":"53.0528","MEAN_MOTION":"15.06405712","TIME_SYSTEM":"UTC","MEAN_MOTION_DDOT":"0.0000000000000","BSTAR":"0.00029186000000","REF_FRAME":"TEME","REV_AT_EPOCH":"16182","ECCENTRICITY":"0.00013940","SEMIMAJOR_AXIS":"6925.331","RA_OF_ASC_NODE":"237.1333","MEAN_MOTION_DOT":"0.00004069","MEAN_ANOMALY":"289.4578","PERIOD":"95.592","COUNTRY_CODE":"US"},{"MEAN_ANOMALY":"287.7476","PERIOD":"95.593","MEAN_MOTION_DOT":"0.00000226","COUNTRY_CODE":"US","SEMIMAJOR_AXIS":"6925.381","REV_AT_EPOCH":"16173","ECCENTRICITY":"0.00015350","RA_OF_ASC_NODE":"239.7868","TIME_SYSTEM":"UTC","MEAN_MOTION_DDOT":"0.0000000000000","BSTAR":"0.00003408900000","REF_FRAME":"TEME","TLE_LINE2":"2 44939  53.0558 239.7868 0001535  72.3680 287.7476 15.06389294161736","CENTER_NAME":"EARTH","ELEMENT_SET_NO":"999","MEAN_MOTION":"15.06389294","INCLINATION":"53.0558","PERIAPSIS":"546.183","ARG_OF_PERICENTER":"72.3680","MEAN_ELEMENT_THEORY":"SGP4","DECAY_DATE":null,"TLE_LINE1":"1 44939U 20001AB  22346.14063186  .00000226  00000-0  34089-4 0  9996","OBJECT_TYPE":"PAYLOAD","EPOCH":"2022-12-12T03:22:30.592704","APOAPSIS":"548.309","GP_ID":"220164270","CLASSIFICATION_TYPE":"U","OBJECT_ID":"2020-001AB","EPHEMERIS_TYPE":"0","RCS_SIZE":"LARGE","SITE":"AFETR","FILE":"3694071","NORAD_CAT_ID":"44939","OBJECT_NAME":"STARLINK-1083","LAUNCH_DATE":"2020-01-07"},{"MEAN_MOTION":"15.06343398","PERIAPSIS":"546.062","INCLINATION":"53.0546","ARG_OF_PERICENTER":"69.3618","CENTER_NAME":"EARTH","TLE_LINE2":"2 44940  53.0546 237.3478 0001913  69.3618 290.7576 15.06343398161812","ELEMENT_SET_NO":"999","REF_FRAME":"TEME","BSTAR":"0.00082313000000","MEAN_MOTION_DDOT":"0.0000000000000","TIME_SYSTEM":"UTC","RA_OF_ASC_NODE":"237.3478","SEMIMAJOR_AXIS":"6925.522","ECCENTRICITY":"0.00019130","REV_AT_EPOCH":"16181","COUNTRY_CODE":"US","PERIOD":"95.596","MEAN_ANOMALY":"290.7576","MEAN_MOTION_DOT":"0.00011981","FILE":"3695286","NORAD_CAT_ID":"44940","LAUNCH_DATE":"2020-01-07","OBJECT_NAME":"STARLINK-1091","EPHEMERIS_TYPE":"0","SITE":"AFETR","RCS_SIZE":"LARGE","OBJECT_ID":"2020-001AC","CLASSIFICATION_TYPE":"U","GP_ID":"220204659","EPOCH":"2022-12-12T16:22:44.864544","OBJECT_TYPE":"PAYLOAD","APOAPSIS":"548.712","TLE_LINE1":"1 44940U 20001AC  22346.68246371  .00011981  00000-0  82313-3 0  9998","MEAN_ELEMENT_THEORY":"SGP4","DECAY_DATE":null},{"OBJECT_ID":"2020-001AD","EPHEMERIS_TYPE":"0","RCS_SIZE":"LARGE","SITE":"AFETR","NORAD_CAT_ID":"44941","FILE":"3694071","LAUNCH_DATE":"2020-01-07","OBJECT_NAME":"STARLINK-1094","MEAN_ELEMENT_THEORY":"SGP4","DECAY_DATE":null,"TLE_LINE1":"1 44941U 20001AD  22345.90841398  .00004504  00000-0  32113-3 0  9999","OBJECT_TYPE":"PAYLOAD","EPOCH":"2022-12-11T21:48:06.967872","APOAPSIS":"548.354","GP_ID":"220165266","CLASSIFICATION_TYPE":"U","TIME_SYSTEM":"UTC","MEAN_MOTION_DDOT":"0.0000000000000","BSTAR":"0.00032113000000","REF_FRAME":"TEME","TLE_LINE2":"2 44941  53.0548 240.8251 0001617  72.6174 287.4992 15.06393288161704","CENTER_NAME":"EARTH","ELEMENT_SET_NO":"999","MEAN_MOTION":"15.06393288","INCLINATION":"53.0548","PERIAPSIS":"546.114","ARG_OF_PERICENTER":"72.6174","MEAN_ANOMALY":"287.4992","PERIOD":"95.593","MEAN_MOTION_DOT":"0.00004504","COUNTRY_CODE":"US","SEMIMAJOR_AXIS":"6925.369","REV_AT_EPOCH":"16170","ECCENTRICITY":"0.00016170","RA_OF_ASC_NODE":"240.8251"},{"EPOCH":"2022-12-12T21:04:39.155808","OBJECT_TYPE":"PAYLOAD","APOAPSIS":"530.161","GP_ID":"220205659","CLASSIFICATION_TYPE":"U","MEAN_ELEMENT_THEORY":"SGP4","DECAY_DATE":null,"TLE_LINE1":"1 44942U 20001AE  22346.87823097 -.00014672  00000-0 -81125-3 0  9999","NORAD_CAT_ID":"44942","FILE":"3695286","OBJECT_NAME":"STARLINK-1096","LAUNCH_DATE":"2020-01-07","OBJECT_ID":"2020-001AE","EPHEMERIS_TYPE":"0","RCS_SIZE":"LARGE","SITE":"AFETR","SEMIMAJOR_AXIS":"6905.871","REV_AT_EPOCH":"16191","ECCENTRICITY":"0.00035110","RA_OF_ASC_NODE":"232.1893","MEAN_ANOMALY":"260.6518","PERIOD":"95.189","MEAN_MOTION_DOT":"-0.00014672","COUNTRY_CODE":"US","TLE_LINE2":"2 44942  53.0528 232.1893 0003511  99.4871 260.6518 15.12777521161918","CENTER_NAME":"EARTH","ELEMENT_SET_NO":"999","MEAN_MOTION":"15.12777521","PERIAPSIS":"525.311","INCLINATION":"53.0528","ARG_OF_PERICENTER":"99.4871","TIME_SYSTEM":"UTC","MEAN_MOTION_DDOT":"0.0000000000000","BSTAR":"-0.00081125000000","REF_FRAME":"TEME"},{"COUNTRY_CODE":"US","MEAN_ANOMALY":"296.6238","PERIOD":"95.593","MEAN_MOTION_DOT":"0.00002699","RA_OF_ASC_NODE":"237.1236","SEMIMAJOR_AXIS":"6925.398","REV_AT_EPOCH":"16182","ECCENTRICITY":"0.00016090","BSTAR":"0.00020008000000","REF_FRAME":"TEME","TIME_SYSTEM":"UTC","MEAN_MOTION_DDOT":"0.0000000000000","MEAN_MOTION":"15.06383729","INCLINATION":"53.0542","PERIAPSIS":"546.149","ARG_OF_PERICENTER":"63.4916","TLE_LINE2":"2 44943  53.0542 237.1236 0001609  63.4916 296.6238 15.06383729161822","CENTER_NAME":"EARTH","ELEMENT_SET_NO":"999","TLE_LINE1":"1 44943U 20001AF  22346.73406585  .00002699  00000-0  20008-3 0  9991","MEAN_ELEMENT_THEORY":"SGP4","DECAY_DATE":null,"GP_ID":"220177637","CLASSIFICATION_TYPE":"U","OBJECT_TYPE":"PAYLOAD","EPOCH":"2022-12-12T17:37:03.289440","APOAPSIS":"548.378","EPHEMERIS_TYPE":"0","RCS_SIZE":"LARGE","SITE":"AFETR","OBJECT_ID":"2020-001AF","NORAD_CAT_ID":"44943","FILE":"3694414","OBJECT_NAME":"STARLINK-1100","LAUNCH_DATE":"2020-01-07"},{"MEAN_MOTION":"15.06400079","ARG_OF_PERICENTER":"76.3458","PERIAPSIS":"546.154","INCLINATION":"53.0545","CENTER_NAME":"EARTH","TLE_LINE2":"2 44944  53.0545 236.6062 0001529  76.3458 283.7701 15.06400079161844","ELEMENT_SET_NO":"999","REF_FRAME":"TEME","BSTAR":"0.00008745800000","MEAN_MOTION_DDOT":"0.0000000000000","TIME_SYSTEM":"UTC","RA_OF_ASC_NODE":"236.6062","SEMIMAJOR_AXIS":"6925.348","ECCENTRICITY":"0.00015290","REV_AT_EPOCH":"16184","COUNTRY_CODE":"US","PERIOD":"95.592","MEAN_ANOMALY":"283.7701","MEAN_MOTION_DOT":"0.00001021","NORAD_CAT_ID":"44944","FILE":"3695286","OBJECT_NAME":"STARLINK-1108","LAUNCH_DATE":"2020-01-07","EPHEMERIS_TYPE":"0","SITE":"AFETR","RCS_SIZE":"LARGE","OBJECT_ID":"2020-001AG","CLASSIFICATION_TYPE":"U","GP_ID":"220205157","EPOCH":"2022-12-12T20:21:34.761600","OBJECT_TYPE":"PAYLOAD","APOAPSIS":"548.272","TLE_LINE1":"1 44944U 20001AG  22346.84831900  .00001021  00000-0  87458-4 0  9998","MEAN_ELEMENT_THEORY":"SGP4","DECAY_DATE":null},{"OBJECT_ID":"2020-001AH","SITE":"AFETR","RCS_SIZE":"LARGE","EPHEMERIS_TYPE":"0","LAUNCH_DATE":"2020-01-07","OBJECT_NAME":"STARLINK-1109","NORAD_CAT_ID":"44945","FILE":"3695286","DECAY_DATE":null,"MEAN_ELEMENT_THEORY":"SGP4","TLE_LINE1":"1 44945U 20001AH  22346.87782547  .00002374  00000-0  17825-3 0  9996","APOAPSIS":"548.276","OBJECT_TYPE":"PAYLOAD","EPOCH":"2022-12-12T21:04:04.120608","CLASSIFICATION_TYPE":"U","GP_ID":"220205407","MEAN_MOTION_DDOT":"0.0000000000000","TIME_SYSTEM":"UTC","REF_FRAME":"TEME","BSTAR":"0.00017825000000","ELEMENT_SET_NO":"999","CENTER_NAME":"EARTH","TLE_LINE2":"2 44945  53.0555 236.4750 0001478  93.8170 266.2988 15.06387358161843","INCLINATION":"53.0555","PERIAPSIS":"546.229","ARG_OF_PERICENTER":"93.8170","MEAN_MOTION":"15.06387358","MEAN_MOTION_DOT":"0.00002374","PERIOD":"95.593","MEAN_ANOMALY":"266.2988","COUNTRY_CODE":"US","ECCENTRICITY":"0.00014780","REV_AT_EPOCH":"16184","SEMIMAJOR_AXIS":"6925.387","RA_OF_ASC_NODE":"236.4750"}];
